1 08820U 76039A   03075.72386444  .00000010  00000-0  10000-3 0  9126
2 08820 109.8225 149.9485 0044462 321.1521  38.6051  6.38664658371154
